[Satellite]
VERSION=1.1
NAME=STARLINK-5040
NICKNAME=STARLINK-5040
TLE1=1 53914U 22119AE  22297.25001157  .00393196  00000+0  27066-2 0  9993
TLE2=2 53914  53.2171 108.0387 0001207  61.7471 132.1482 15.72940454  5047
STATUS=0
